stk.v.4.3 

BEGIN Ephemeris 
 
NumberOfEphemerisPoints		146 
ScenarioEpoch	    1 Sep 2020 19:19:15.292694271 
InterpolationMethod		Lagrange 
InterpolationOrder		5 
CentralBody				Earth 
CoordinateSystem			TEME 
CoordinateSystemEpoch	  1 Sep 2020 19:19:15.292694271 
DistanceUnit			Kilometers 
 
EphemerisTimePosVel 
 
       0.00000000   -5275.39870323    4751.57138313       0.03540787 -0.221396841 -0.431588400  7.423177119
 END Ephemeris 
